ONEWEB-0235             
1 48771U 21045E   25014.87366955  .00000147  00000+0  35613-3 0  9992
2 48771  87.9073   2.3902 0001341 105.9031 254.2247 13.15547458176235
ONEWEB-0242             
1 48772U 21045F   25015.01944850  .00000136  00000+0  32724-3 0  9994
2 48772  87.9074   2.3479 0001541  89.2402 270.8905 13.15547594177422
ONEWEB-0241             
1 48773U 21045G   25014.93071548  .00000035  00000+0  58229-4 0  9997
2 48773  87.9078   2.4326 0001853 100.2439 259.8900 13.15548326176198
ONEWEB-0243             
1 48774U 21045H   25014.96240036  .00000092  00000+0  21057-3 0  9992
2 48774  87.9084   2.3869 0001329  98.4237 261.7044 13.15547518177351
ONEWEB-0222             
1 48775U 21045J   25014.94576908  .00000194  00000+0  48172-3 0  9991
2 48775  87.9073   2.3710 0001780  94.5685 265.5648 13.15547767176267
ONEWEB-0244             
1 48776U 21045K   25014.89584751  .00000012  00000+0 -33396-5 0  9995
2 48776  87.9071   2.3605 0001595  86.2267 273.9046 13.15547695176824
ONEWEB-0247             
1 48777U 21045L   25014.96875471  .00000033  00000+0  53467-4 0  9998
2 48777  87.9081   2.4033 0001132 122.5150 237.6090 13.15550174177401
ONEWEB-0245             
1 48778U 21045M   25014.96397432  .00000080  00000+0  17965-3 0  9999
2 48778  87.9072   2.3804 0001872  94.3179 265.8165 13.15547088176242
